[Satellite]
VERSION=1.1
NAME=RADUGA 21 [-]
NICKNAME=RADUGA 21 [-]
TLE1=1 18631U 87100A   15053.21473050 -.00000320  00000-0  00000+0 0  9996
TLE2=2 18631  15.2267   3.8897 0003402 137.1622  34.0425  1.00244338 99630
